[
    {
        "Altitude(m)": 622200.1005878946,
        "Argument of Periapsis(deg)": 0.0,
        "Eccentricity": 0.0,
        "Inclination(deg)": 60.0,
        "Latitude(deg)": -52.16251997559949,
        "Longitude(deg)": 167.3606311233557,
        "Mean Anomaly(deg)": -65.45449999999998,
        "RAAN(deg)": 315.0,
        "Satellite Name": "Test1 1404",
        "Satellite Number": 1404,
        "Semi-Major Axis(m)": 6980739.136638005,
        "Time(s)": 0
    },
    {
        "Altitude(m)": 622058.268778886,
        "Argument of Periapsis(deg)": 0.00010418945913296404,
        "Eccentricity": 0.0,
        "Inclination(deg)": 60.0,
        "Latitude(deg)": -51.79927089910609,
        "Longitude(deg)": 168.12869028434457,
        "Mean Anomaly(deg)": -64.83439385453813,
        "RAAN(deg)": 314.99957995086027,
        "Satellite Name": "Test1 1404",
        "Satellite Number": 1404,
        "Semi-Major Axis(m)": 6980739.136638005,
        "Time(s)": 10
    },
    {
        "Altitude(m)": 621913.70367954,
        "Argument of Periapsis(deg)": 0.0002083789182659281,
        "Eccentricity": 0.0,
        "Inclination(deg)": 60.0,
        "Latitude(deg)": -51.4305102276316,
        "Longitude(deg)": 168.88377071006178,
        "Mean Anomaly(deg)": -64.21428770907637,
        "RAAN(deg)": 314.9991599017205,
        "Satellite Name": "Test1 1404",
        "Satellite Number": 1404,
        "Semi-Major Axis(m)": 6980739.136638005,
        "Time(s)": 20
    },
    {
        "Altitude(m)": 621766.4617290213,
        "Argument of Periapsis(deg)": 0.00031256837739889213,
        "Eccentricity": 0.0,
        "Inclination(deg)": 60.0,
        "Latitude(deg)": -51.05639508180489,
        "Longitude(deg)": 169.6260620943867,
        "Mean Anomaly(deg)": -63.59418156361448,
        "RAAN(deg)": 314.9987398525808,
        "Satellite Name": "Test1 1404",
        "Satellite Number": 1404,
        "Semi-Major Axis(m)": 6980739.136638005,
        "Time(s)": 30
    },
    {
        "Altitude(m)": 621616.6003829011,
        "Argument of Periapsis(deg)": 0.0004167578365318562,
        "Eccentricity": 0.0,
        "Inclination(deg)": 60.0,
        "Latitude(deg)": -50.67707889176678,
        "Longitude(deg)": 170.3557618968452,
        "Mean Anomaly(deg)": -62.974075418152715,
        "RAAN(deg)": 314.99831980344106,
        "Satellite Name": "Test1 1404",
        "Satellite Number": 1404,
        "Semi-Major Axis(m)": 6980739.136638005,
        "Time(s)": 40
    },
    {
        "Altitude(m)": 621464.1780885622,
        "Argument of Periapsis(deg)": 0.0005209472956648203,
        "Eccentricity": 0.0,
        "Inclination(deg)": 60.0,
        "Latitude(deg)": -50.292711370160205,
        "Longitude(deg)": 171.07307329277262,
        "Mean Anomaly(deg)": -62.353969272690875,
        "RAAN(deg)": 314.9978997543013,
        "Satellite Name": "Test1 1404",
        "Satellite Number": 1404,
        "Semi-Major Axis(m)": 6980739.136638005,
        "Time(s)": 50
    },
    {
        "Altitude(m)": 621309.2542601295,
        "Argument of Periapsis(deg)": 0.0006251367547977843,
        "Eccentricity": 0.0,
        "Inclination(deg)": 60.0,
        "Latitude(deg)": -49.90343849967813,
        "Longitude(deg)": 171.77820470569395,
        "Mean Anomaly(deg)": -61.73386312722902,
        "RAAN(deg)": 314.99747970516154,
        "Satellite Name": "Test1 1404",
        "Satellite Number": 1404,
        "Semi-Major Axis(m)": 6980739.136638005,
        "Time(s)": 60
    },
    {
        "Altitude(m)": 621151.889253015,
        "Argument of Periapsis(deg)": 0.0007293262139307483,
        "Eccentricity": 0.0,
        "Inclination(deg)": 60.0,
        "Latitude(deg)": -49.50940253376308,
        "Longitude(deg)": 172.4713694076448,
        "Mean Anomaly(deg)": -61.11375698176721,
        "RAAN(deg)": 314.9970596560218,
        "Satellite Name": "Test1 1404",
        "Satellite Number": 1404,
        "Semi-Major Axis(m)": 6980739.136638005,
        "Time(s)": 70
    },
    {
        "Altitude(m)": 620992.144337996,
        "Argument of Periapsis(deg)": 0.0008335156730637124,
        "Eccentricity": 0.0,
        "Inclination(deg)": 60.0,
        "Latitude(deg)": -49.110742009122475,
        "Longitude(deg)": 173.1527836727391,
        "Mean Anomaly(deg)": -60.493650836305356,
        "RAAN(deg)": 314.99663960688207,
        "Satellite Name": "Test1 1404",
        "Satellite Number": 1404,
        "Semi-Major Axis(m)": 6980739.136638005,
        "Time(s)": 80
    },
    {
        "Altitude(m)": 620830.0816748982,
        "Argument of Periapsis(deg)": 0.0009377051321966765,
        "Eccentricity": 0.0,
        "Inclination(deg)": 60.0,
        "Latitude(deg)": -48.707591768806644,
        "Longitude(deg)": 173.8226665075711,
        "Mean Anomaly(deg)": -59.87354469084352,
        "RAAN(deg)": 314.99621955774234,
        "Satellite Name": "Test1 1404",
        "Satellite Number": 1404,
        "Semi-Major Axis(m)": 6980739.136638005,
        "Time(s)": 90
    },
    {
        "Altitude(m)": 620665.7642858836,
        "Argument of Periapsis(deg)": 0.0010418945913296407,
        "Eccentricity": 0.0,
        "Inclination(deg)": 60.0,
        "Latitude(deg)": -48.30008299466185,
        "Longitude(deg)": 174.4812394431633,
        "Mean Anomaly(deg)": -59.253438545381655,
        "RAAN(deg)": 314.99579950860254,
        "Satellite Name": "Test1 1404",
        "Satellite Number": 1404,
        "Semi-Major Axis(m)": 6980739.136638005,
        "Time(s)": 100
    },
    {
        "Altitude(m)": 620499.2560283304,
        "Argument of Periapsis(deg)": 0.0011460840504626045,
        "Eccentricity": 0.0,
        "Inclination(deg)": 60.0,
        "Latitude(deg)": -47.88834324804968,
        "Longitude(deg)": 175.12872487296983,
        "Mean Anomaly(deg)": -58.63333239991985,
        "RAAN(deg)": 314.99537945946287,
        "Satellite Name": "Test1 1404",
        "Satellite Number": 1404,
        "Semi-Major Axis(m)": 6980739.136638005,
        "Time(s)": 110
    },
    {
        "Altitude(m)": 620330.6215673246,
        "Argument of Periapsis(deg)": 0.0012502735095955685,
        "Eccentricity": 0.0,
        "Inclination(deg)": 60.0,
        "Latitude(deg)": -47.47249651780642,
        "Longitude(deg)": 175.76534595992666,
        "Mean Anomaly(deg)": -58.013226254458,
        "RAAN(deg)": 314.99495941032313,
        "Satellite Name": "Test1 1404",
        "Satellite Number": 1404,
        "Semi-Major Axis(m)": 6980739.136638005,
        "Time(s)": 120
    },
    {
        "Altitude(m)": 620159.9263478246,
        "Argument of Periapsis(deg)": 0.0013544629687285324,
        "Eccentricity": 0.0,
        "Inclination(deg)": 60.0,
        "Latitude(deg)": -47.05266327448537,
        "Longitude(deg)": 176.39132659682687,
        "Mean Anomaly(deg)": -57.39312010899614,
        "RAAN(deg)": 314.99453936118334,
        "Satellite Name": "Test1 1404",
        "Satellite Number": 1404,
        "Semi-Major Axis(m)": 6980739.136638005,
        "Time(s)": 130
    },
    {
        "Altitude(m)": 619987.2365663954,
        "Argument of Periapsis(deg)": 0.0014586524278614966,
        "Eccentricity": 0.0,
        "Inclination(deg)": 60.0,
        "Latitude(deg)": -46.62896052999667,
        "Longitude(deg)": 177.00688990425311,
        "Mean Anomaly(deg)": -56.7730139635343,
        "RAAN(deg)": 314.9941193120436,
        "Satellite Name": "Test1 1404",
        "Satellite Number": 1404,
        "Semi-Major Axis(m)": 6980739.136638005,
        "Time(s)": 140
    },
    {
        "Altitude(m)": 619812.6191426747,
        "Argument of Periapsis(deg)": 0.0015628418869944607,
        "Eccentricity": 0.0,
        "Inclination(deg)": 60.0,
        "Latitude(deg)": -46.201501901839364,
        "Longitude(deg)": 177.61225828890494,
        "Mean Anomaly(deg)": -56.15290781807249,
        "RAAN(deg)": 314.9936992629039,
        "Satellite Name": "Test1 1404",
        "Satellite Number": 1404,
        "Semi-Major Axis(m)": 6980739.136638005,
        "Time(s)": 150
    },
    {
        "Altitude(m)": 619636.1416904286,
        "Argument of Periapsis(deg)": 0.0016670313461274247,
        "Eccentricity": 0.0,
        "Inclination(deg)": 60.0,
        "Latitude(deg)": -45.77039768118168,
        "Longitude(deg)": 178.20765354655893,
        "Mean Anomaly(deg)": -55.53280167261064,
        "RAAN(deg)": 314.99327921376414,
        "Satellite Name": "Test1 1404",
        "Satellite Number": 1404,
        "Semi-Major Axis(m)": 6980739.136638005,
        "Time(s)": 160
    },
    {
        "Altitude(m)": 619457.8724883588,
        "Argument of Periapsis(deg)": 0.0017712208052603888,
        "Eccentricity": 0.0,
        "Inclination(deg)": 60.0,
        "Latitude(deg)": -45.335754904108995,
        "Longitude(deg)": 178.79329549394413,
        "Mean Anomaly(deg)": -54.91269552714889,
        "RAAN(deg)": 314.9928591646244,
        "Satellite Name": "Test1 1404",
        "Satellite Number": 1404,
        "Semi-Major Axis(m)": 6980739.136638005,
        "Time(s)": 170
    },
    {
        "Altitude(m)": 619277.8804505119,
        "Argument of Periapsis(deg)": 0.001875410264393353,
        "Eccentricity": 0.0,
        "Inclination(deg)": 60.0,
        "Latitude(deg)": -44.897677425429784,
        "Longitude(deg)": 179.3694021524988,
        "Mean Anomaly(deg)": -54.29258938168704,
        "RAAN(deg)": 314.9924391154846,
        "Satellite Name": "Test1 1404",
        "Satellite Number": 1404,
        "Semi-Major Axis(m)": 6980739.136638005,
        "Time(s)": 180
    },
    {
        "Altitude(m)": 619096.2350964664,
        "Argument of Periapsis(deg)": 0.0019795997235263173,
        "Eccentricity": 0.0,
        "Inclination(deg)": 60.0,
        "Latitude(deg)": -44.45626599448175,
        "Longitude(deg)": 179.93618996843702,
        "Mean Anomaly(deg)": -53.67248323622523,
        "RAAN(deg)": 314.99201906634494,
        "Satellite Name": "Test1 1404",
        "Satellite Number": 1404,
        "Semi-Major Axis(m)": 6980739.136638005,
        "Time(s)": 190
    }
]